SL-14 R/B               
1 21423U 91042B   25353.94016889  .00000309  00000+0  36158-4 0  9999
2 21423  82.4933 294.9711 0018044 139.0405 221.2168 14.81744850841260
ERS-1                   
1 21574U 91050A   25354.03596617  .00000212  00000+0  82579-4 0  9999
2 21574  98.7900   5.2731 0033008  79.0197 281.4700 14.39369876804278
ARIANE 40 R/B           
1 21610U 91050F   25354.13751617  .00000240  00000+0  84509-4 0  9990
2 21610  98.2155  44.3009 0002338 334.9479  25.1598 14.42818959807520
INTERCOSMOS 25          
1 21819U 91086A   25353.98327854  .00001861  00000+0  37063-3 0  9996
2 21819  82.6067 358.1942 1486372 288.7801  55.8054 12.11753950487032
SL-8 R/B                
1 21876U 92008B   25354.02415427  .00000101  00000+0  88318-4 0  9990
2 21876  82.9267 327.0278 0034729 359.6525  63.1807 13.75960556698464
SL-8 R/B                
1 21938U 92020B   25354.12530762  .00000126  00000+0  11441-3 0  9993
2 21938  82.9298 212.8332 0029381 157.6225 314.3893 13.75528870690197
USA 81                  
1 21949U 92023A   25353.95013873  .00000153  00000+0  49380-4 0  9991
2 21949  85.0079 177.4175 0001158  76.1616 283.9705 14.32329368 83376
COSMOS 2219             
1 22219U 92076A   25353.94003725  .00000190  00000+0  12460-3 0  9993
2 22219  71.0573 184.7807 0019210 317.0914  42.8709 14.14064357707104
SL-16 R/B               
1 22220U 92076B   25354.13089396  .00000245  00000+0  14625-3 0  9991
2 22220  71.0006 355.9622 0014397 224.0726 200.3450 14.16843248710567
COSMOS 2221             
1 22236U 92080A   25354.10960167  .00001385  00000+0  12157-3 0  9998
2 22236  82.5038 355.2708 0016276  98.9666 261.3399 14.95785829768898
SL-16 R/B               
1 22285U 92093B   25353.95252970  .00000158  00000+0  10543-3 0  9998
2 22285  71.0204 171.6548 0002349  46.2062 313.9255 14.15434327701870
COSMOS 2228             
1 22286U 92094A   25354.11103536  .00001665  00000+0  14296-3 0  9995
2 22286  82.5181 313.4810 0017058 204.9070 155.1331 14.96760367764151
