CCSDS_OMM_VERS = 2.0
CREATION_DATE  = 
ORIGINATOR     = 

OBJECT_NAME    = SL-14 R/B
OBJECT_ID      = 1991-042B
CENTER_NAME    = EARTH
REF_FRAME      = TEME
TIME_SYSTEM    = UTC
MEAN_ELEMENT_THEORY = SGP/SGP4

EPOCH          = 2025-12-19T22:33:50.592096
MEAN_MOTION    = 14.81744850
ECCENTRICITY   = .0018044
INCLINATION    = 82.4933
RA_OF_ASC_NODE = 294.9711
ARG_OF_PERICENTER = 139.0405
MEAN_ANOMALY   = 221.2168

EPHEMERIS_TYPE = 0
CLASSIFICATION_TYPE = U
NORAD_CAT_ID   = 21423
ELEMENT_SET_NO = 999
REV_AT_EPOCH   = 84126
BSTAR          = .36158E-4
MEAN_MOTION_DOT = .309E-5
MEAN_MOTION_DDOT = 0

CCSDS_OMM_VERS = 2.0
CREATION_DATE  = 
ORIGINATOR     = 

OBJECT_NAME    = ERS-1
OBJECT_ID      = 1991-050A
CENTER_NAME    = EARTH
REF_FRAME      = TEME
TIME_SYSTEM    = UTC
MEAN_ELEMENT_THEORY = SGP/SGP4

EPOCH          = 2025-12-20T00:51:47.477088
MEAN_MOTION    = 14.39369876
ECCENTRICITY   = .0033008
INCLINATION    = 98.7900
RA_OF_ASC_NODE = 5.2731
ARG_OF_PERICENTER = 79.0197
MEAN_ANOMALY   = 281.4700

EPHEMERIS_TYPE = 0
CLASSIFICATION_TYPE = U
NORAD_CAT_ID   = 21574
ELEMENT_SET_NO = 999
REV_AT_EPOCH   = 80427
BSTAR          = .82579E-4
MEAN_MOTION_DOT = .212E-5
MEAN_MOTION_DDOT = 0

CCSDS_OMM_VERS = 2.0
CREATION_DATE  = 
ORIGINATOR     = 

OBJECT_NAME    = ARIANE 40 R/B
OBJECT_ID      = 1991-050F
CENTER_NAME    = EARTH
REF_FRAME      = TEME
TIME_SYSTEM    = UTC
MEAN_ELEMENT_THEORY = SGP/SGP4

EPOCH          = 2025-12-20T03:18:01.397088
MEAN_MOTION    = 14.42818959
ECCENTRICITY   = .0002338
INCLINATION    = 98.2155
RA_OF_ASC_NODE = 44.3009
ARG_OF_PERICENTER = 334.9479
MEAN_ANOMALY   = 25.1598

EPHEMERIS_TYPE = 0
CLASSIFICATION_TYPE = U
NORAD_CAT_ID   = 21610
ELEMENT_SET_NO = 999
REV_AT_EPOCH   = 80752
BSTAR          = .84509E-4
MEAN_MOTION_DOT = .24E-5
MEAN_MOTION_DDOT = 0

CCSDS_OMM_VERS = 2.0
CREATION_DATE  = 
ORIGINATOR     = 

OBJECT_NAME    = INTERCOSMOS 25
OBJECT_ID      = 1991-086A
CENTER_NAME    = EARTH
REF_FRAME      = TEME
TIME_SYSTEM    = UTC
MEAN_ELEMENT_THEORY = SGP/SGP4

EPOCH          = 2025-12-19T23:35:55.265856
MEAN_MOTION    = 12.11753950
ECCENTRICITY   = .1486372
INCLINATION    = 82.6067
RA_OF_ASC_NODE = 358.1942
ARG_OF_PERICENTER = 288.7801
MEAN_ANOMALY   = 55.8054

EPHEMERIS_TYPE = 0
CLASSIFICATION_TYPE = U
NORAD_CAT_ID   = 21819
ELEMENT_SET_NO = 999
REV_AT_EPOCH   = 48703
BSTAR          = .37063E-3
MEAN_MOTION_DOT = .1861E-4
MEAN_MOTION_DDOT = 0

CCSDS_OMM_VERS = 2.0
CREATION_DATE  = 
ORIGINATOR     = 

OBJECT_NAME    = SL-8 R/B
OBJECT_ID      = 1992-008B
CENTER_NAME    = EARTH
REF_FRAME      = TEME
TIME_SYSTEM    = UTC
MEAN_ELEMENT_THEORY = SGP/SGP4

EPOCH          = 2025-12-20T00:34:46.928928
MEAN_MOTION    = 13.75960556
ECCENTRICITY   = .0034729
INCLINATION    = 82.9267
RA_OF_ASC_NODE = 327.0278
ARG_OF_PERICENTER = 359.6525
MEAN_ANOMALY   = 63.1807

EPHEMERIS_TYPE = 0
CLASSIFICATION_TYPE = U
NORAD_CAT_ID   = 21876
ELEMENT_SET_NO = 999
REV_AT_EPOCH   = 69846
BSTAR          = .88318E-4
MEAN_MOTION_DOT = .101E-5
MEAN_MOTION_DDOT = 0

CCSDS_OMM_VERS = 2.0
CREATION_DATE  = 
ORIGINATOR     = 

OBJECT_NAME    = SL-8 R/B
OBJECT_ID      = 1992-020B
CENTER_NAME    = EARTH
REF_FRAME      = TEME
TIME_SYSTEM    = UTC
MEAN_ELEMENT_THEORY = SGP/SGP4

EPOCH          = 2025-12-20T03:00:26.578368
MEAN_MOTION    = 13.75528870
ECCENTRICITY   = .0029381
INCLINATION    = 82.9298
RA_OF_ASC_NODE = 212.8332
ARG_OF_PERICENTER = 157.6225
MEAN_ANOMALY   = 314.3893

EPHEMERIS_TYPE = 0
CLASSIFICATION_TYPE = U
NORAD_CAT_ID   = 21938
ELEMENT_SET_NO = 999
REV_AT_EPOCH   = 69019
BSTAR          = .11441E-3
MEAN_MOTION_DOT = .126E-5
MEAN_MOTION_DDOT = 0

CCSDS_OMM_VERS = 2.0
CREATION_DATE  = 
ORIGINATOR     = 

OBJECT_NAME    = USA 81
OBJECT_ID      = 1992-023A
CENTER_NAME    = EARTH
REF_FRAME      = TEME
TIME_SYSTEM    = UTC
MEAN_ELEMENT_THEORY = SGP/SGP4

EPOCH          = 2025-12-19T22:48:11.986272
MEAN_MOTION    = 14.32329368
ECCENTRICITY   = .0001158
INCLINATION    = 85.0079
RA_OF_ASC_NODE = 177.4175
ARG_OF_PERICENTER = 76.1616
MEAN_ANOMALY   = 283.9705

EPHEMERIS_TYPE = 0
CLASSIFICATION_TYPE = U
NORAD_CAT_ID   = 21949
ELEMENT_SET_NO = 999
REV_AT_EPOCH   = 8337
BSTAR          = .4938E-4
MEAN_MOTION_DOT = .153E-5
MEAN_MOTION_DDOT = 0

CCSDS_OMM_VERS = 2.0
CREATION_DATE  = 
ORIGINATOR     = 

OBJECT_NAME    = COSMOS 2219
OBJECT_ID      = 1992-076A
CENTER_NAME    = EARTH
REF_FRAME      = TEME
TIME_SYSTEM    = UTC
MEAN_ELEMENT_THEORY = SGP/SGP4

EPOCH          = 2025-12-19T22:33:39.218400
MEAN_MOTION    = 14.14064357
ECCENTRICITY   = .001921
INCLINATION    = 71.0573
RA_OF_ASC_NODE = 184.7807
ARG_OF_PERICENTER = 317.0914
MEAN_ANOMALY   = 42.8709

EPHEMERIS_TYPE = 0
CLASSIFICATION_TYPE = U
NORAD_CAT_ID   = 22219
ELEMENT_SET_NO = 999
REV_AT_EPOCH   = 70710
BSTAR          = .1246E-3
MEAN_MOTION_DOT = .19E-5
MEAN_MOTION_DDOT = 0

CCSDS_OMM_VERS = 2.0
CREATION_DATE  = 
ORIGINATOR     = 

OBJECT_NAME    = SL-16 R/B
OBJECT_ID      = 1992-076B
CENTER_NAME    = EARTH
REF_FRAME      = TEME
TIME_SYSTEM    = UTC
MEAN_ELEMENT_THEORY = SGP/SGP4

EPOCH          = 2025-12-20T03:08:29.238144
MEAN_MOTION    = 14.16843248
ECCENTRICITY   = .0014397
INCLINATION    = 71.0006
RA_OF_ASC_NODE = 355.9622
ARG_OF_PERICENTER = 224.0726
MEAN_ANOMALY   = 200.3450

EPHEMERIS_TYPE = 0
CLASSIFICATION_TYPE = U
NORAD_CAT_ID   = 22220
ELEMENT_SET_NO = 999
REV_AT_EPOCH   = 71056
BSTAR          = .14625E-3
MEAN_MOTION_DOT = .245E-5
MEAN_MOTION_DDOT = 0

CCSDS_OMM_VERS = 2.0
CREATION_DATE  = 
ORIGINATOR     = 

OBJECT_NAME    = COSMOS 2221
OBJECT_ID      = 1992-080A
CENTER_NAME    = EARTH
REF_FRAME      = TEME
TIME_SYSTEM    = UTC
MEAN_ELEMENT_THEORY = SGP/SGP4

EPOCH          = 2025-12-20T02:37:49.584288
MEAN_MOTION    = 14.95785829
ECCENTRICITY   = .0016276
INCLINATION    = 82.5038
RA_OF_ASC_NODE = 355.2708
ARG_OF_PERICENTER = 98.9666
MEAN_ANOMALY   = 261.3399

EPHEMERIS_TYPE = 0
CLASSIFICATION_TYPE = U
NORAD_CAT_ID   = 22236
ELEMENT_SET_NO = 999
REV_AT_EPOCH   = 76889
BSTAR          = .12157E-3
MEAN_MOTION_DOT = .1385E-4
MEAN_MOTION_DDOT = 0

CCSDS_OMM_VERS = 2.0
CREATION_DATE  = 
ORIGINATOR     = 

OBJECT_NAME    = SL-16 R/B
OBJECT_ID      = 1992-093B
CENTER_NAME    = EARTH
REF_FRAME      = TEME
TIME_SYSTEM    = UTC
MEAN_ELEMENT_THEORY = SGP/SGP4

EPOCH          = 2025-12-19T22:51:38.566080
MEAN_MOTION    = 14.15434327
ECCENTRICITY   = .0002349
INCLINATION    = 71.0204
RA_OF_ASC_NODE = 171.6548
ARG_OF_PERICENTER = 46.2062
MEAN_ANOMALY   = 313.9255

EPHEMERIS_TYPE = 0
CLASSIFICATION_TYPE = U
NORAD_CAT_ID   = 22285
ELEMENT_SET_NO = 999
REV_AT_EPOCH   = 70187
BSTAR          = .10543E-3
MEAN_MOTION_DOT = .158E-5
MEAN_MOTION_DDOT = 0

CCSDS_OMM_VERS = 2.0
CREATION_DATE  = 
ORIGINATOR     = 

OBJECT_NAME    = COSMOS 2228
OBJECT_ID      = 1992-094A
CENTER_NAME    = EARTH
REF_FRAME      = TEME
TIME_SYSTEM    = UTC
MEAN_ELEMENT_THEORY = SGP/SGP4

EPOCH          = 2025-12-20T02:39:53.455104
MEAN_MOTION    = 14.96760367
ECCENTRICITY   = .0017058
INCLINATION    = 82.5181
RA_OF_ASC_NODE = 313.4810
ARG_OF_PERICENTER = 204.9070
MEAN_ANOMALY   = 155.1331

EPHEMERIS_TYPE = 0
CLASSIFICATION_TYPE = U
NORAD_CAT_ID   = 22286
ELEMENT_SET_NO = 999
REV_AT_EPOCH   = 76415
BSTAR          = .14296E-3
MEAN_MOTION_DOT = .1665E-4
MEAN_MOTION_DDOT = 0

